IRIDIUM 159             
1 43578U 18061K   24202.91641217  .00000682  00000+0  23650-3 0  9998
2 43578  86.3994 347.6820 0001922  95.8680 264.2735 14.34221811313584
IRIDIUM 180             
1 43922U 19002A   24202.70660835 -.00000123  00000+0 -51126-4 0  9993
2 43922  86.3960 284.6483 0002156  99.1616 260.9823 14.34216722289163
IRIDIUM 176             
1 43923U 19002B   24202.76185112  .00002363  00000+0  37076-3 0  9993
2 43923  86.6094 284.6447 0002215  97.8482 262.2987 14.72263385296788
IRIDIUM 168             
1 43924U 19002C   24202.77002111  .00000038  00000+0  66318-5 0  9992
2 43924  86.3964 284.6796 0002091  95.8077 264.3357 14.34216243289155
IRIDIUM 173             
1 43925U 19002D   24202.75734702  .00000633  00000+0  21882-3 0  9995
2 43925  86.3961 284.6023 0002088  95.1279 265.0155 14.34220227289138
IRIDIUM 169             
1 43926U 19002E   24202.79032750  .00000917  00000+0  29322-3 0  9996
2 43926  86.4248 316.2183 0004071 109.0172 251.1467 14.38616572290105
IRIDIUM 172             
1 43927U 19002F   24202.75100024  .00000331  00000+0  11102-3 0  9990
2 43927  86.3960 284.6106 0002211  91.6813 268.4636 14.34215172289149
IRIDIUM 175             
1 43928U 19002G   24202.68826987  .00000345  00000+0  50752-4 0  9996
2 43928  86.1487 255.9222 0002615  99.7096 260.4416 14.72239769296766
